ONEWEB-0102             
1 47258U 20100A   25080.51473424  .00000354  00000+0  94869-3 0  9994
2 47258  87.8807  80.7732 0001745  85.2775 274.8553 13.12444573205357
ONEWEB-0109             
1 47259U 20100B   25080.52284312  .00000364  00000+0  97657-3 0  9991
2 47259  87.8808  80.7393 0001837  84.8510 275.2828 13.12441757205188
ONEWEB-0110             
1 47260U 20100C   25080.54878460 -.00000125  00000+0 -38193-3 0  9995
2 47260  87.8799  80.7238 0001936  82.0456 278.0893 13.12439952205352
ONEWEB-0111             
1 47261U 20100D   25080.73209387 -.00000001  00000+0 -38839-4 0  9994
2 47261  87.8805  80.6975 0001828  86.3614 273.7723 13.12444706205213
ONEWEB-0114             
1 47262U 20100E   25080.53418553  .00000298  00000+0  79198-3 0  9998
2 47262  87.8802  80.7406 0001536  81.2493 278.8809 13.12444256205149
ONEWEB-0117             
1 47263U 20100F   25080.52608529  .00000365  00000+0  98026-3 0  9998
2 47263  87.8808  80.7289 0001926  88.2803 271.8546 13.12441522205155
ONEWEB-0118             
1 47264U 20100G   25080.55852221 -.00000465  00000+0 -13268-2 0  9999
2 47264  87.8805  80.7246 0001539  93.1366 266.9939 13.12442238205353
ONEWEB-0119             
1 47265U 20100H   25080.50986467  .00000162  00000+0  41505-3 0  9993
2 47265  87.8807  80.7736 0001890  86.0116 274.1229 13.12445527205328
